VDNH-80                 
1 44392U 19038G   21255.65303745  .00002062  00000-0  11681-3 0  9991
2 44392  97.5952 219.9891 0021813  15.9458  34.2109 15.13967697120788
D-STAR ONE (LIGHTSAT)   
1 44393U 19038H   21255.77907019  .00002785  00000-0  15684-3 0  9998
2 44393  97.5968 219.9855 0021815  16.4564 343.7371 15.13874288120997
AMGU-1 (AMURSAT)        
1 44394U 19038J   21255.86091361  .00002486  00000-0  14035-3 0  9990
2 44394  97.5939 220.0094 0022268  15.4677 344.7234 15.13882433121004
DOT-1                   
1 44399U 19038P   21255.47759330  .00001582  00000-0  93143-4 0  9993
2 44399  97.5993 218.9987 0024922  20.4097 339.8124 15.12859968120892
SOKRAT                  
1 44404U 19038U   21255.42768139  .00002597  00000-0  14715-3 0  9996
2 44404  97.5959 219.3290 0022218  19.3754 340.8317 15.13708180120926
LUCKY-7                 
1 44406U 19038W   21255.54886088  .00001728  00000-0  10060-3 0  9999
2 44406  97.5986 219.3119 0024527  13.0193 347.1666 15.13155849120915
D-STAR ONE (EXOCONNECT) 
1 44410U 19038AA  21255.54036391  .00003760  00000-0  20613-3 0  9991
2 44410  97.5929 219.7932 0021750  16.7437 343.4507 15.14610118120975
NARSSCUBE-2             
1 44415U 19022E   21255.35958895  .00003285  00000-0  11861-3 0  9997
2 44415  51.6429  19.7298 0011630 134.8584 225.3344 15.31380938117460
KRAKSAT                 
1 44427U 98067QM  21255.79199926  .00048930  00000-0  35940-3 0  9996
2 44427  51.6375 214.8155 0002118 147.6487 286.7942 15.72604641125197
NARSSCUBE-1             
1 44792U 98067QX  21255.31059038  .00059830  00000-0  42870-3 0  9999
2 44792  51.6328 228.1786 0000275 239.1920 120.9051 15.73104214103209
DUCHIFAT-3              
1 44854U 19089C   21255.48871587  .00000795  00000-0  69742-4 0  9998
2 44854  36.9685 305.8844 0006953 120.1593 239.9841 14.99616825 96170
OPS-SAT                 
1 44878U 19092F   21255.47762873  .00001827  00000-0  96360-4 0  9997
2 44878  97.4779  77.7299 0012489 223.3910 136.6341 15.16765916 96029
FLORIPASAT-1            
1 44885U 19093G   21255.83613646  .00000452  00000-0  63014-4 0  9992
2 44885  97.9220 334.4149 0015250  22.0101 338.1767 14.82373129 93712
HUSKYSAT-1 (HO-107)     
1 45119U 19071J   21255.39859465  .00004308  00000-0  12980-3 0  9990
2 45119  51.6423 335.1140 0010517 244.6796 115.3098 15.36463040 90538
G-SAT                   
1 45597U 98067RK  21255.38776234  .00023021  00000-0  27853-3 0  9991
2 45597  51.6383 252.0744 0002838 322.2110  37.8684 15.60578269 78172
QUETZAL-1               
1 45598U 98067RL  21255.35248020  .00034345  00000-0  36732-3 0  9993
2 45598  51.6377 249.5794 0002196  22.0645 338.0444 15.63543270 78130
BY70-2                  
1 45857U 20042B   21255.82511614  .00001362  00000-0  19919-3 0  9994
2 45857  97.9806 330.6641 0009360 294.6500  65.3729 14.77265440 64447
SALSAT                  
1 46495U 20068K   21255.57900620  .00000909  00000-0  70968-4 0  9990
2 46495  97.6944 192.5759 0017231 134.4089 225.8553 15.03534889 52429
NETSAT-4                
1 46504U 20068U   21255.49608200  .00000900  00000-0  72843-4 0  9996
2 46504  97.6947 191.6426 0013263 182.3949 177.7158 15.02222297 52301
NETSAT-3                
1 46505U 20068V   21255.37184683  .00001523  00000-0  12020-3 0  9990
2 46505  97.6907 191.4721 0011847 195.9443 164.1410 15.02180894 52294
NETSAT-1                
1 46506U 20068W   21255.38034462  .00001254  00000-0  99934-4 0  9992
2 46506  97.6882 191.4455 0008859 213.4005 146.6662 15.02126757 52292
NETSAT-2                
1 46507U 20068X   21255.38531526  .00000665  00000-0  55225-4 0  9996
2 46507  97.6888 191.4524 0007021 223.0365 137.0309 15.02092713 52243
BY70-3                  
1 46839U 20079N   21255.86189095  .00005248  00000-0  16016-3 0  9995
2 46839  97.2346 327.9914 0005383 245.4367 226.1272 15.34332804 47600
SPOC                    
1 46921U 98067RR  21255.26827308  .00014785  00000-0  21312-3 0  9990
2 46921  51.6404 262.5531 0003007  49.1933 310.9319 15.56240178 48374
BOBCAT-1                
1 46922U 98067RS  21255.42036463  .00024969  00000-0  32082-3 0  9994
2 46922  51.6407 259.0979 0003090  54.7628 305.3654 15.58938571 48395
NEUTRON-1               
1 46923U 98067RT  21255.41938335  .00015319  00000-0  22156-3 0  9993
2 46923  51.6404 262.0589 0002952  59.8221 300.3063 15.56116073 48421
1998-067RU              
1 46924U 98067RU  21255.36624410  .00055171  00000-0  53643-3 0  9999
2 46924  51.6367 253.4205 0003748  72.7100 287.4305 15.65733088 48507
DESCENT                 
1 46927U 98067RX  21255.42470643  .00015899  00000-0  22956-3 0  9992
2 46927  51.6404 262.0904 0003097  73.5511 286.5821 15.56129839 48333
UVSQ-SAT                
1 47438U 21006AB  21255.40244558  .00001562  00000-0  91103-4 0  9994
2 47438  97.4795 315.0442 0013468 151.7704 208.4260 15.13348302 35207
SOMP2B                  
1 47445U 21006AJ  21255.36011746  .00001573  00000-0  92167-4 0  9991
2 47445  97.4767 314.8624 0012976 155.4625 204.7226 15.13178493 35190
WARP-01                 
1 47924U 98067SA  21255.24623045  .00019642  00000-0  30255-3 0  9997
2 47924  51.6417 268.3775 0005879  66.3542 293.8065 15.54176436 28280
RSP-01                  
1 47925U 98067SB  21255.33227095  .00015408  00000-0  24471-3 0  9992
2 47925  51.6412 268.2117 0002794  20.6177 339.4925 15.53534869 28273
TAUSAT-1                
1 47926U 98067SC  21255.26235797  .00019204  00000-0  29272-3 0  9995
2 47926  51.6399 267.7391 0003892  14.1453 345.9646 15.54490864 28269
TSURU                   
1 47927U 98067SD  21255.28634299  .00013672  00000-0  22075-3 0  9995
2 47927  51.6413 268.6542 0002790  18.2014 341.9075 15.53186706 28267
STARS-EC                
1 47928U 98067SE  21255.44748090  .00021465  00000-0  33003-3 0  9991
2 47928  51.6408 267.4730 0006417  69.0340 291.1337 15.54160314 28270
MAYA-2                  
1 47929U 98067SF  21255.41149936  .00013688  00000-0  22076-3 0  9999
2 47929  51.6413 267.9900 0002810  15.9640 344.1438 15.53216053 28246
HIROGARI (OPUSAT-II)    
1 47930U 98067SG  21255.40688016  .00021850  00000-0  32933-3 0  9990
2 47930  51.6410 267.2127 0002978  16.9137 343.1953 15.54711378 28293
GUARANISAT-1            
1 47931U 98067SH  21255.34548837  .00013686  00000-0  22061-3 0  9999
2 47931  51.6413 268.3008 0002775  15.1343 344.9730 15.53232387 28279
DIY-1 (ARDUIQUBE)       
1 47963U 21022AH  21255.25155189  .00003870  00000-0  25658-3 0  9994
2 47963  97.5488 156.0332 0020254  14.0251 346.1535 15.07696675 24979
